{
  "type": "FeatureCollection",
  "features": [
    {
      "type": "Feature",
      "properties": {
        "norad_id": 36585,
        "name": "GPS BIIF-1  (PRN 25)",
        "group": "gnss",
        "lat": 31.743639100801463,
        "lon": 10.082873834349037,
        "alt_km": 20087.14486567553,
        "timestamp": "2025-12-03T04:52:29.879610+00:00",
        "meta_object_name": "GPS BIIF-1  (PRN 25)",
        "meta_object_id": "2010-022A",
        "meta_epoch": "2025-12-02T06:20:52.766304",
        "meta_mean_motion": 2.00552564,
        "meta_eccentricity": 0.0125665,
        "meta_inclination": 54.3023,
        "meta_ra_of_asc_node": 216.4964,
        "meta_arg_of_pericenter": 64.9581,
        "meta_mean_anomaly": 115.6293,
        "meta_ephemeris_type": 0,
        "meta_classification_type": "U",
        "meta_norad_cat_id": 36585,
        "meta_element_set_no": 999,
        "meta_rev_at_epoch": 11364,
        "meta_bstar": 0,
        "meta_mean_motion_dot": 6.7e-07,
        "meta_mean_motion_ddot": 0,
        "tle_line1": "1 36585U 10022A   25336.26449961  .00000067  00000+0  00000+0 0  9993",
        "tle_line2": "2 36585  54.3023 216.4964 0125665  64.9581 115.6293  2.00552564113647"
      },
      "geometry": {
        "type": "Point",
        "coordinates": [
          10.082873834349037,
          31.743639100801463
        ]
      }
    },
    {
      "type": "Feature",
      "properties": {
        "norad_id": 36828,
        "name": "BEIDOU-2 IGSO-1 (C06)",
        "group": "gnss",
        "lat": 54.170433656494374,
        "lon": -108.8359269721496,
        "alt_km": 35910.930959172845,
        "timestamp": "2025-12-03T04:52:29.879623+00:00",
        "meta_object_name": "BEIDOU-2 IGSO-1 (C06)",
        "meta_object_id": "2010-036A",
        "meta_epoch": "2025-12-01T10:54:26.819712",
        "meta_mean_motion": 1.00279202,
        "meta_eccentricity": 0.00512823,
        "meta_inclination": 54.2832,
        "meta_ra_of_asc_node": 164.751,
        "meta_arg_of_pericenter": 215.7518,
        "meta_mean_anomaly": 321.3962,
        "meta_ephemeris_type": 0,
        "meta_classification_type": "U",
        "meta_norad_cat_id": 36828,
        "meta_element_set_no": 999,
        "meta_rev_at_epoch": 5611,
        "meta_bstar": 0,
        "meta_mean_motion_dot": -1.7e-07,
        "meta_mean_motion_ddot": 0,
        "tle_line1": "1 36828U 10036A   25335.45447708 -.00000017  00000+0  00000+0 0  9991",
        "tle_line2": "2 36828  54.2832 164.7510 0051282 215.7518 321.3962  1.00279202 56116"
      },
      "geometry": {
        "type": "Point",
        "coordinates": [
          -108.8359269721496,
          54.170433656494374
        ]
      }
    },
    {
      "type": "Feature",
      "properties": {
        "norad_id": 37210,
        "name": "BEIDOU-2 G4 (C04)",
        "group": "gnss",
        "lat": -2.6133861317256915,
        "lon": -54.477403901769094,
        "alt_km": 35755.46919885498,
        "timestamp": "2025-12-03T04:52:29.879635+00:00",
        "meta_object_name": "BEIDOU-2 G4 (C04)",
        "meta_object_id": "2010-057A",
        "meta_epoch": "2025-12-02T16:16:59.711232",
        "meta_mean_motion": 1.00271364,
        "meta_eccentricity": 0.00108679,
        "meta_inclination": 3.1576,
        "meta_ra_of_asc_node": 69.9621,
        "meta_arg_of_pericenter": 188.1041,
        "meta_mean_anomaly": 218.0329,
        "meta_ephemeris_type": 0,
        "meta_classification_type": "U",
        "meta_norad_cat_id": 37210,
        "meta_element_set_no": 999,
        "meta_rev_at_epoch": 5532,
        "meta_bstar": 0,
        "meta_mean_motion_dot": -9.2e-07,
        "meta_mean_motion_ddot": 0,
        "tle_line1": "1 37210U 10057A   25336.67846888 -.00000092  00000+0  00000+0 0  9990",
        "tle_line2": "2 37210   3.1576  69.9621 0010867 188.1041 218.0329  1.00271364 55329"
      },
      "geometry": {
        "type": "Point",
        "coordinates": [
          -54.477403901769094,
          -2.6133861317256915
        ]
      }
    },
    {
      "type": "Feature",
      "properties": {
        "norad_id": 37256,
        "name": "BEIDOU-2 IGSO-2 (C07)",
        "group": "gnss",
        "lat": -15.569689899105443,
        "lon": -100.33547282754405,
        "alt_km": 35894.9806655939,
        "timestamp": "2025-12-03T04:52:29.879648+00:00",
        "meta_object_name": "BEIDOU-2 IGSO-2 (C07)",
        "meta_object_id": "2010-068A",
        "meta_epoch": "2025-12-02T18:27:21.890304",
        "meta_mean_motion": 1.00289078,
        "meta_eccentricity": 0.0049278,
        "meta_inclination": 47.9063,
        "meta_ra_of_asc_node": 274.2734,
        "meta_arg_of_pericenter": 216.1997,
        "meta_mean_anomaly": 325.3694,
        "meta_ephemeris_type": 0,
        "meta_classification_type": "U",
        "meta_norad_cat_id": 37256,
        "meta_element_set_no": 999,
        "meta_rev_at_epoch": 5482,
        "meta_bstar": 0,
        "meta_mean_motion_dot": -2.27e-06,
        "meta_mean_motion_ddot": 0,
        "tle_line1": "1 37256U 10068A   25336.76900336 -.00000227  00000+0  00000+0 0  9991",
        "tle_line2": "2 37256  47.9063 274.2734 0049278 216.1997 325.3694  1.00289078 54824"
      },
      "geometry": {
        "type": "Point",
        "coordinates": [
          -100.33547282754405,
          -15.569689899105443
        ]
      }
    },
    {
      "type": "Feature",
      "properties": {
        "norad_id": 37384,
        "name": "BEIDOU-2 IGSO-3 (C08)",
        "group": "gnss",
        "lat": -27.316852545766075,
        "lon": -122.13181690743774,
        "alt_km": 35653.33231428656,
        "timestamp": "2025-12-03T04:52:29.879659+00:00",
        "meta_object_name": "BEIDOU-2 IGSO-3 (C08)",
        "meta_object_id": "2011-013A",
        "meta_epoch": "2025-11-29T21:04:05.094336",
        "meta_mean_motion": 1.00273417,
        "meta_eccentricity": 0.00356655,
        "meta_inclination": 62.1255,
        "meta_ra_of_asc_node": 42.0418,
        "meta_arg_of_pericenter": 186.0158,
        "meta_mean_anomaly": 264.7363,
        "meta_ephemeris_type": 0,
        "meta_classification_type": "U",
        "meta_norad_cat_id": 37384,
        "meta_element_set_no": 999,
        "meta_rev_at_epoch": 5366,
        "meta_bstar": 0,
        "meta_mean_motion_dot": -1.94e-06,
        "meta_mean_motion_ddot": 0,
        "tle_line1": "1 37384U 11013A   25333.87783674 -.00000194  00000+0  00000+0 0  9990",
        "tle_line2": "2 37384  62.1255  42.0418 0035665 186.0158 264.7363  1.00273417 53667"
      },
      "geometry": {
        "type": "Point",
        "coordinates": [
          -122.13181690743774,
          -27.316852545766075
        ]
      }
    },
    {
      "type": "Feature",
      "properties": {
        "norad_id": 37605,
        "name": "GSAT-8 (GAGAN/PRN 127)",
        "group": "gnss",
        "lat": 1.4345758247425735,
        "lon": -159.60364411307052,
        "alt_km": 35767.101236346265,
        "timestamp": "2025-12-03T04:52:29.879672+00:00",
        "meta_object_name": "GSAT-8 (GAGAN/PRN 127)",
        "meta_object_id": "2011-022A",
        "meta_epoch": "2025-12-02T20:36:33.846048",
        "meta_mean_motion": 1.0027252,
        "meta_eccentricity": 0.0008993,
        "meta_inclination": 1.622,
        "meta_ra_of_asc_node": 84.3009,
        "meta_arg_of_pericenter": 177.1004,
        "meta_mean_anomaly": 174.7759,
        "meta_ephemeris_type": 0,
        "meta_classification_type": "U",
        "meta_norad_cat_id": 37605,
        "meta_element_set_no": 999,
        "meta_rev_at_epoch": 5124,
        "meta_bstar": 0,
        "meta_mean_motion_dot": 1.04e-06,
        "meta_mean_motion_ddot": 0,
        "tle_line1": "1 37605U 11022A   25336.85872507  .00000104  00000+0  00000+0 0  9991",
        "tle_line2": "2 37605   1.6220  84.3009 0008993 177.1004 174.7759  1.00272520 51248"
      },
      "geometry": {
        "type": "Point",
        "coordinates": [
          -159.60364411307052,
          1.4345758247425735
        ]
      }
    },
    {
      "type": "Feature",
      "properties": {
        "norad_id": 37763,
        "name": "BEIDOU-2 IGSO-4 (C09)",
        "group": "gnss",
        "lat": 50.502859490860345,
        "lon": -132.72305671965256,
        "alt_km": 36362.560560884776,
        "timestamp": "2025-12-03T04:52:29.879685+00:00",
        "meta_object_name": "BEIDOU-2 IGSO-4 (C09)",
        "meta_object_id": "2011-038A",
        "meta_epoch": "2025-12-01T12:32:09.960864",
        "meta_mean_motion": 1.00284074,
        "meta_eccentricity": 0.0148781,
        "meta_inclination": 54.5808,
        "meta_ra_of_asc_node": 167.4476,
        "meta_arg_of_pericenter": 230.2031,
        "meta_mean_anomaly": 315.0387,
        "meta_ephemeris_type": 0,
        "meta_classification_type": "U",
        "meta_norad_cat_id": 37763,
        "meta_element_set_no": 999,
        "meta_rev_at_epoch": 5266,
        "meta_bstar": 0,
        "meta_mean_motion_dot": 1.01e-06,
        "meta_mean_motion_ddot": 0,
        "tle_line1": "1 37763U 11038A   25335.52233751  .00000101  00000+0  00000+0 0  9995",
        "tle_line2": "2 37763  54.5808 167.4476 0148781 230.2031 315.0387  1.00284074 52665"
      },
      "geometry": {
        "type": "Point",
        "coordinates": [
          -132.72305671965256,
          50.502859490860345
        ]
      }
    }
  ]
}